[{"OBJECT_NAME":"ONEWEB-0616","OBJECT_ID":"2023-004T","EPOCH":"2026-03-09T21:28:01.784640","MEAN_MOTION":13.17649183,"ECCENTRICITY":0.00017835,"INCLINATION":87.9156,"RA_OF_ASC_NODE":25.5826,"ARG_OF_PERICENTER":111.1762,"MEAN_ANOMALY":248.956,"EPHEMERIS_TYPE":0,"CLASSIFICATION_TYPE":"U","NORAD_CAT_ID":55157,"ELEMENT_SET_NO":999,"REV_AT_EPOCH":15462,"BSTAR":-0.00010483519,"MEAN_MOTION_DOT":-2.8e-7,"MEAN_MOTION_DDOT":0},{"OBJECT_NAME":"DELTA 1 DEB","OBJECT_ID":"1975-052EB","EPOCH":"2026-03-09T08:55:35.755968","MEAN_MOTION":13.31695006,"ECCENTRICITY":0.0068239,"INCLINATION":99.8121,"RA_OF_ASC_NODE":203.4255,"ARG_OF_PERICENTER":191.947,"MEAN_ANOMALY":233.1789,"EPHEMERIS_TYPE":0,"CLASSIFICATION_TYPE":"U","NORAD_CAT_ID":21443,"ELEMENT_SET_NO":999,"REV_AT_EPOCH":69335,"BSTAR":0.00014298549,"MEAN_MOTION_DOT":2.7e-7,"MEAN_MOTION_DDOT":0}]
